GLOBALSTAR M094 [+]     
1 39074U 13005C   23241.71191581 -.00000109  00000+0 -30871-4 0  9991
2 39074  51.9981  23.9360 0000580  92.6507 267.4426 12.62266972489345
GLOBALSTAR M096 [+]     
1 39075U 13005D   23241.80414588 -.00000088  00000+0  87900-4 0  9997
2 39075  52.0071  71.6549 0000453  84.5938 275.4981 12.62268228488276
GLOBALSTAR M078 [+]     
1 39076U 13005E   23241.46076695 -.00000016  00000+0  48948-3 0  9992
2 39076  51.9865 158.1037 0000996 135.7870 224.3076 12.62271081486856
GLOBALSTAR M095 [+]     
1 39077U 13005F   23241.48767630 -.00000104  00000+0 -47728-6 0  9998
2 39077  51.9792 155.5485 0000379 151.2829 208.8058 12.62268172486715
GLOBALSTAR M087 [+]     
1 52888U 22064A   23241.49167639 -.00000107  00000+0  39768-4 0  9997
2 52888  51.9752 148.9782 0009553 345.5009  14.5616 13.37551416 58359
